[Satellite]
VERSION=1.1
NAME=QSAT-EOS
NICKNAME=QSAT-EOS
TLE1=1 40301U 14070D   19311.40846301  .00001330  00000-0  53717-4 0  9995
TLE2=2 40301  97.3160  25.7482 0023859 256.9426 233.8514 15.26283250277900
STATUS=0
